start=new Date('2023-01-25T00:00:00.000Z').valueOf();
sats=[{"TIME_SYSTEM":"UTC","OBJECT_ID":"2021-040BA","DECAY_DATE":null,"RCS_SIZE":"LARGE","MEAN_MOTION_DOT":"0.00003133","TLE_LINE2":"2 48476  53.0520 268.5780 0001177 124.6678 235.4422 15.06402031 95965","CLASSIFICATION_TYPE":"U","APOAPSIS":"548.022","REF_FRAME":"TEME","PERIAPSIS":"546.392","TLE_LINE1":"1 48476U 21040BA  23024.84804449  .00003133  00000-0  22912-3 0  9997","BSTAR":"0.00022912000000","ECCENTRICITY":"0.00011770","MEAN_MOTION":"15.06402031","OBJECT_NAME":"STARLINK-2723","LAUNCH_DATE":"2021-05-09","REV_AT_EPOCH":"9596","COUNTRY_CODE":"US","SEMIMAJOR_AXIS":"6925.342","RA_OF_ASC_NODE":"268.5780","NORAD_CAT_ID":"48476","MEAN_ANOMALY":"235.4422","ELEMENT_SET_NO":"999","GP_ID":"223641680","EPHEMERIS_TYPE":"0","INCLINATION":"53.0520","ARG_OF_PERICENTER":"124.6678","SITE":"AFETR","MEAN_ELEMENT_THEORY":"SGP4","PERIOD":"95.592","OBJECT_TYPE":"PAYLOAD","CENTER_NAME":"EARTH","MEAN_MOTION_DDOT":"0.0000000000000","FILE":"3760167","EPOCH":"2023-01-24T20:21:11.043936"},{"EPOCH":"2023-01-23T20:06:51.690528","FILE":"3759111","MEAN_MOTION_DDOT":"0.0000000000000","CENTER_NAME":"EARTH","OBJECT_TYPE":"PAYLOAD","PERIOD":"95.592","MEAN_ELEMENT_THEORY":"SGP4","SITE":"AFETR","ARG_OF_PERICENTER":"103.4735","INCLINATION":"53.0539","EPHEMERIS_TYPE":"0","GP_ID":"223620079","ELEMENT_SET_NO":"999","MEAN_ANOMALY":"256.6401","NORAD_CAT_ID":"48478","SEMIMAJOR_AXIS":"6925.349","RA_OF_ASC_NODE":"273.1001","COUNTRY_CODE":"US","REV_AT_EPOCH":"9513","LAUNCH_DATE":"2021-05-09","OBJECT_NAME":"STARLINK-2728","ECCENTRICITY":"0.00013150","MEAN_MOTION":"15.06399885","BSTAR":"-0.00007477700000","TLE_LINE1":"1 48478U 21040BC  23023.83809827 -.00001395  00000-0 -74777-4 0  9999","PERIAPSIS":"546.303","REF_FRAME":"TEME","APOAPSIS":"548.125","CLASSIFICATION_TYPE":"U","TLE_LINE2":"2 48478  53.0539 273.1001 0001315 103.4735 256.6401 15.06399885 95131","MEAN_MOTION_DOT":"-0.00001395","RCS_SIZE":"LARGE","DECAY_DATE":null,"OBJECT_ID":"2021-040BC","TIME_SYSTEM":"UTC"},{"INCLINATION":"53.0515","ELEMENT_SET_NO":"999","EPHEMERIS_TYPE":"0","GP_ID":"223641684","NORAD_CAT_ID":"48479","MEAN_ANOMALY":"261.4333","SEMIMAJOR_AXIS":"6925.342","RA_OF_ASC_NODE":"268.6521","EPOCH":"2023-01-24T19:54:38.694528","FILE":"3760165","OBJECT_TYPE":"PAYLOAD","CENTER_NAME":"EARTH","MEAN_MOTION_DDOT":"0.0000000000000","ARG_OF_PERICENTER":"98.6812","SITE":"AFETR","PERIOD":"95.592","MEAN_ELEMENT_THEORY":"SGP4","PERIAPSIS":"546.257","CLASSIFICATION_TYPE":"U","APOAPSIS":"548.158","REF_FRAME":"TEME","MEAN_MOTION_DOT":"0.00003092","TLE_LINE2":"2 48479  53.0515 268.6521 0001373  98.6812 261.4333 15.06402001 95961","TIME_SYSTEM":"UTC","OBJECT_ID":"2021-040BD","DECAY_DATE":null,"RCS_SIZE":"LARGE","COUNTRY_CODE":"US","MEAN_MOTION":"15.06402001","ECCENTRICITY":"0.00013730","OBJECT_NAME":"STARLINK-2755","LAUNCH_DATE":"2021-05-09","REV_AT_EPOCH":"9596","BSTAR":"0.00022638000000","TLE_LINE1":"1 48479U 21040BD  23024.82961452  .00003092  00000-0  22638-3 0  9995"},{"EPOCH":"2023-01-24T20:13:11.094528","FILE":"3760168","OBJECT_TYPE":"PAYLOAD","MEAN_MOTION_DDOT":"0.0000000000000","CENTER_NAME":"EARTH","ARG_OF_PERICENTER":"110.4016","MEAN_ELEMENT_THEORY":"SGP4","PERIOD":"95.592","SITE":"AFETR","INCLINATION":"53.0487","EPHEMERIS_TYPE":"0","GP_ID":"223642093","ELEMENT_SET_NO":"999","NORAD_CAT_ID":"48480","MEAN_ANOMALY":"249.7130","SEMIMAJOR_AXIS":"6925.326","RA_OF_ASC_NODE":"278.5907","COUNTRY_CODE":"US","OBJECT_NAME":"STARLINK-2690","MEAN_MOTION":"15.06407203","ECCENTRICITY":"0.00014660","REV_AT_EPOCH":"9582","LAUNCH_DATE":"2021-05-09","BSTAR":"0.00030089000000","TLE_LINE1":"1 48480U 21040BE  23024.84248952  .00004204  00000-0  30089-3 0  9997","PERIAPSIS":"546.176","APOAPSIS":"548.207","CLASSIFICATION_TYPE":"U","REF_FRAME":"TEME","MEAN_MOTION_DOT":"0.00004204","TLE_LINE2":"2 48480  53.0487 278.5907 0001466 110.4016 249.7130 15.06407203 95829","TIME_SYSTEM":"UTC","RCS_SIZE":"LARGE","DECAY_DATE":null,"OBJECT_ID":"2021-040BE"},{"REV_AT_EPOCH":"9569","LAUNCH_DATE":"2021-05-09","OBJECT_NAME":"STARLINK-2706","MEAN_MOTION":"15.06418244","ECCENTRICITY":"0.00010820","COUNTRY_CODE":"US","TLE_LINE1":"1 48481U 21040BF  23024.02150771  .00022074  00000-0  14954-2 0  9996","BSTAR":"0.00149540000000","REF_FRAME":"TEME","APOAPSIS":"547.907","CLASSIFICATION_TYPE":"U","PERIAPSIS":"546.408","RCS_SIZE":"LARGE","DECAY_DATE":null,"OBJECT_ID":"2021-040BF","TIME_SYSTEM":"UTC","TLE_LINE2":"2 48481  53.0515 282.5645 0001082  86.0418 274.0695 15.06418244 95693","MEAN_MOTION_DOT":"0.00022074","FILE":"3759585","EPOCH":"2023-01-24T00:30:58.266144","PERIOD":"95.591","MEAN_ELEMENT_THEORY":"SGP4","SITE":"AFETR","ARG_OF_PERICENTER":"86.0418","MEAN_MOTION_DDOT":"0.0000000000000","CENTER_NAME":"EARTH","OBJECT_TYPE":"PAYLOAD","GP_ID":"223629350","EPHEMERIS_TYPE":"0","ELEMENT_SET_NO":"999","INCLINATION":"53.0515","RA_OF_ASC_NODE":"282.5645","SEMIMAJOR_AXIS":"6925.293","MEAN_ANOMALY":"274.0695","NORAD_CAT_ID":"48481"},{"PERIAPSIS":"546.313","APOAPSIS":"548.210","CLASSIFICATION_TYPE":"U","REF_FRAME":"TEME","MEAN_MOTION_DOT":"-0.00000750","TLE_LINE2":"2 48482  53.0507 278.5608 0001370  92.9370 267.1776 15.06384399 94990","TIME_SYSTEM":"UTC","RCS_SIZE":"LARGE","DECAY_DATE":null,"OBJECT_ID":"2021-040BG","COUNTRY_CODE":"US","OBJECT_NAME":"STARLINK-2525","ECCENTRICITY":"0.00013700","MEAN_MOTION":"15.06384399","REV_AT_EPOCH":"9499","LAUNCH_DATE":"2021-05-09","BSTAR":"-0.00003144600000","TLE_LINE1":"1 48482U 21040BG  23024.85082009 -.00000750  00000-0 -31446-4 0  9992","INCLINATION":"53.0507","EPHEMERIS_TYPE":"0","GP_ID":"223642102","ELEMENT_SET_NO":"999","NORAD_CAT_ID":"48482","MEAN_ANOMALY":"267.1776","RA_OF_ASC_NODE":"278.5608","SEMIMAJOR_AXIS":"6925.396","EPOCH":"2023-01-24T20:25:10.855776","FILE":"3760179","OBJECT_TYPE":"PAYLOAD","MEAN_MOTION_DDOT":"0.0000000000000","CENTER_NAME":"EARTH","ARG_OF_PERICENTER":"92.9370","MEAN_ELEMENT_THEORY":"SGP4","PERIOD":"95.593","SITE":"AFETR"},{"PERIAPSIS":"546.166","CLASSIFICATION_TYPE":"U","APOAPSIS":"548.213","REF_FRAME":"TEME","MEAN_MOTION_DOT":"0.00006088","TLE_LINE2":"2 48483  53.0526 278.5693 0001478 121.7124 238.4009 15.06407738 95829","TIME_SYSTEM":"UTC","OBJECT_ID":"2021-040BH","RCS_SIZE":"LARGE","DECAY_DATE":null,"COUNTRY_CODE":"US","MEAN_MOTION":"15.06407738","ECCENTRICITY":"0.00014780","OBJECT_NAME":"STARLINK-2531","LAUNCH_DATE":"2021-05-09","REV_AT_EPOCH":"9582","BSTAR":"0.00042719000000","TLE_LINE1":"1 48483U 21040BH  23024.84711981  .00006088  00000-0  42719-3 0  9992","INCLINATION":"53.0526","ELEMENT_SET_NO":"999","GP_ID":"223641728","EPHEMERIS_TYPE":"0","NORAD_CAT_ID":"48483","MEAN_ANOMALY":"238.4009","SEMIMAJOR_AXIS":"6925.325","RA_OF_ASC_NODE":"278.5693","EPOCH":"2023-01-24T20:19:51.151584","FILE":"3760169","OBJECT_TYPE":"PAYLOAD","CENTER_NAME":"EARTH","MEAN_MOTION_DDOT":"0.0000000000000","ARG_OF_PERICENTER":"121.7124","SITE":"AFETR","MEAN_ELEMENT_THEORY":"SGP4","PERIOD":"95.592"},{"CENTER_NAME":"EARTH","MEAN_MOTION_DDOT":"0.0000000000000","OBJECT_TYPE":"PAYLOAD","SITE":"AFETR","MEAN_ELEMENT_THEORY":"SGP4","PERIOD":"95.593","ARG_OF_PERICENTER":"79.0529","EPOCH":"2023-01-23T00:00:43.961184","FILE":"3758778","NORAD_CAT_ID":"48484","MEAN_ANOMALY":"281.0520","SEMIMAJOR_AXIS":"6925.396","RA_OF_ASC_NODE":"287.2322","INCLINATION":"53.0537","ELEMENT_SET_NO":"999","EPHEMERIS_TYPE":"0","GP_ID":"223612642","BSTAR":"0.00014303000000","TLE_LINE1":"1 48484U 21040BJ  23023.00050881  .00001849  00000-0  14303-3 0  9993","COUNTRY_CODE":"US","LAUNCH_DATE":"2021-05-09","REV_AT_EPOCH":"9554","MEAN_MOTION":"15.06384652","ECCENTRICITY":"0.00005360","OBJECT_NAME":"STARLINK-2696","TLE_LINE2":"2 48484  53.0537 287.2322 0000536  79.0529 281.0520 15.06384652 95546","MEAN_MOTION_DOT":"0.00001849","OBJECT_ID":"2021-040BJ","DECAY_DATE":null,"RCS_SIZE":"LARGE","TIME_SYSTEM":"UTC","PERIAPSIS":"546.889","REF_FRAME":"TEME","CLASSIFICATION_TYPE":"U","APOAPSIS":"547.632"},{"RA_OF_ASC_NODE":"278.5475","SEMIMAJOR_AXIS":"6925.351","NORAD_CAT_ID":"48485","MEAN_ANOMALY":"241.7079","EPHEMERIS_TYPE":"0","GP_ID":"223641719","ELEMENT_SET_NO":"999","INCLINATION":"53.0512","PERIOD":"95.592","MEAN_ELEMENT_THEORY":"SGP4","SITE":"AFETR","ARG_OF_PERICENTER":"118.4068","MEAN_MOTION_DDOT":"0.0000000000000","CENTER_NAME":"EARTH","OBJECT_TYPE":"PAYLOAD","FILE":"3760169","EPOCH":"2023-01-24T20:30:28.399104","RCS_SIZE":"LARGE","DECAY_DATE":null,"OBJECT_ID":"2021-040BK","TIME_SYSTEM":"UTC","TLE_LINE2":"2 48485  53.0512 278.5475 0001569 118.4068 241.7079 15.06399115 95828","MEAN_MOTION_DOT":"0.00001575","REF_FRAME":"TEME","APOAPSIS":"548.303","CLASSIFICATION_TYPE":"U","PERIAPSIS":"546.130","TLE_LINE1":"1 48485U 21040BK  23024.85449536  .00001575  00000-0  12461-3 0  9996","BSTAR":"0.00012461000000","REV_AT_EPOCH":"9582","LAUNCH_DATE":"2021-05-09","OBJECT_NAME":"STARLINK-2500","ECCENTRICITY":"0.00015690","MEAN_MOTION":"15.06399115","COUNTRY_CODE":"US"},{"TIME_SYSTEM":"UTC","RCS_SIZE":"LARGE","DECAY_DATE":null,"OBJECT_ID":"2021-040BL","MEAN_MOTION_DOT":"0.00003974","TLE_LINE2":"2 48486  53.0522 280.0125 0001547 114.5202 245.5948 15.06413697 95776","APOAPSIS":"548.243","CLASSIFICATION_TYPE":"U","REF_FRAME":"TEME","PERIAPSIS":"546.100","TLE_LINE1":"1 48486U 21040BL  23024.52549168  .00003974  00000-0  28546-3 0  9999","BSTAR":"0.00028546000000","OBJECT_NAME":"STARLINK-2496","MEAN_MOTION":"15.06413697","ECCENTRICITY":"0.00015470","REV_AT_EPOCH":"9577","LAUNCH_DATE":"2021-05-09","COUNTRY_CODE":"US","SEMIMAJOR_AXIS":"6925.307","RA_OF_ASC_NODE":"280.0125","NORAD_CAT_ID":"48486","MEAN_ANOMALY":"245.5948","GP_ID":"223635644","EPHEMERIS_TYPE":"0","ELEMENT_SET_NO":"999","INCLINATION":"53.0522","ARG_OF_PERICENTER":"114.5202","MEAN_ELEMENT_THEORY":"SGP4","PERIOD":"95.591","SITE":"AFETR","OBJECT_TYPE":"PAYLOAD","MEAN_MOTION_DDOT":"0.0000000000000","CENTER_NAME":"EARTH","FILE":"3759853","EPOCH":"2023-01-24T12:36:42.481152"}];
